[{"OBJECT_NAME":"STARLINK-5315","OBJECT_ID":"2023-010AS","EPOCH":"2026-03-09T22:36:43.285824","MEAN_MOTION":14.98324735,"ECCENTRICITY":0.00026267,"INCLINATION":70.0021,"RA_OF_ASC_NODE":3.6806,"ARG_OF_PERICENTER":265.4453,"MEAN_ANOMALY":94.6406,"EPHEMERIS_TYPE":0,"CLASSIFICATION_TYPE":"U","NORAD_CAT_ID":55309,"ELEMENT_SET_NO":999,"REV_AT_EPOCH":17381,"BSTAR":-4.8305114e-5,"MEAN_MOTION_DOT":-6.69e-6,"MEAN_MOTION_DDOT":0},{"OBJECT_NAME":"GNOMES-5","OBJECT_ID":"2024-149DL","EPOCH":"2026-03-09T22:53:01.372704","MEAN_MOTION":15.00280005,"ECCENTRICITY":0.00076217,"INCLINATION":97.6857,"RA_OF_ASC_NODE":148.0235,"ARG_OF_PERICENTER":89.6268,"MEAN_ANOMALY":270.5829,"EPHEMERIS_TYPE":0,"CLASSIFICATION_TYPE":"U","NORAD_CAT_ID":60574,"ELEMENT_SET_NO":999,"REV_AT_EPOCH":8527,"BSTAR":0.00047414566,"MEAN_MOTION_DOT":5.885e-5,"MEAN_MOTION_DDOT":0}]
